start=new Date('2022-06-21T00:00:00.000Z').valueOf();
sats=[{"ARG_OF_PERICENTER":"50.0043","TIME_SYSTEM":"UTC","DECAY_DATE":null,"RCS_SIZE":"LARGE","INCLINATION":"53.0543","ELEMENT_SET_NO":"999","PERIOD":"95.591","TLE_LINE1":"1 44767U 19074BG  22171.87769121  .00005552  00000-0  39120-3 0  9998","COUNTRY_CODE":"US","BSTAR":"0.00039120000000","REF_FRAME":"TEME","REV_AT_EPOCH":"14354","OBJECT_NAME":"STARLINK-1062","MEAN_MOTION_DOT":"0.00005552","CLASSIFICATION_TYPE":"U","ECCENTRICITY":"0.00019220","MEAN_ANOMALY":"310.1115","MEAN_MOTION":"15.06410978","FILE":"3498404","EPHEMERIS_TYPE":"0","OBJECT_TYPE":"PAYLOAD","CENTER_NAME":"EARTH","TLE_LINE2":"2 44767  53.0543 202.0633 0001922  50.0043 310.1115 15.06410978143542","SITE":"AFETR","PERIAPSIS":"545.849","OBJECT_ID":"2019-074BG","GP_ID":"206510073","SEMIMAJOR_AXIS":"6925.315","APOAPSIS":"548.511","EPOCH":"2022-06-20T21:03:52.520544","MEAN_ELEMENT_THEORY":"SGP4","NORAD_CAT_ID":"44767","RA_OF_ASC_NODE":"202.0633","MEAN_MOTION_DDOT":"0.0000000000000","LAUNCH_DATE":"2019-11-11"},{"DECAY_DATE":null,"ARG_OF_PERICENTER":"57.2754","TIME_SYSTEM":"UTC","ELEMENT_SET_NO":"999","PERIOD":"95.592","RCS_SIZE":"LARGE","INCLINATION":"53.0531","TLE_LINE1":"1 44768U 19074BH  22171.56901588  .00000391  00000-0  45116-4 0  9999","REF_FRAME":"TEME","COUNTRY_CODE":"US","BSTAR":"0.00004511600000","OBJECT_NAME":"STARLINK-1063","MEAN_MOTION_DOT":"0.00000391","REV_AT_EPOCH":"14350","CLASSIFICATION_TYPE":"U","MEAN_ANOMALY":"302.8382","ECCENTRICITY":"0.00015270","FILE":"3498404","MEAN_MOTION":"15.06399499","EPHEMERIS_TYPE":"0","OBJECT_TYPE":"PAYLOAD","SITE":"AFETR","TLE_LINE2":"2 44768  53.0531 203.4476 0001527  57.2754 302.8382 15.06399499143503","CENTER_NAME":"EARTH","PERIAPSIS":"546.158","APOAPSIS":"548.273","OBJECT_ID":"2019-074BH","SEMIMAJOR_AXIS":"6925.350","GP_ID":"206510322","EPOCH":"2022-06-20T13:39:22.972032","MEAN_ELEMENT_THEORY":"SGP4","MEAN_MOTION_DDOT":"0.0000000000000","NORAD_CAT_ID":"44768","RA_OF_ASC_NODE":"203.4476","LAUNCH_DATE":"2019-11-11"},{"MEAN_ELEMENT_THEORY":"SGP4","EPOCH":"2022-06-20T18:03:00.780768","LAUNCH_DATE":"2019-11-11","MEAN_MOTION_DDOT":"0.0000000000000","NORAD_CAT_ID":"44770","RA_OF_ASC_NODE":"187.0957","EPHEMERIS_TYPE":"0","OBJECT_TYPE":"PAYLOAD","FILE":"3498404","MEAN_MOTION":"15.16059785","APOAPSIS":"519.894","OBJECT_ID":"2019-074BK","GP_ID":"206511566","SEMIMAJOR_AXIS":"6895.900","TLE_LINE2":"2 44770  52.9994 187.0957 0003087  32.3539 327.7642 15.16059785143705","SITE":"AFETR","CENTER_NAME":"EARTH","PERIAPSIS":"515.636","OBJECT_NAME":"STARLINK-1065","MEAN_MOTION_DOT":"0.00017651","REV_AT_EPOCH":"14370","CLASSIFICATION_TYPE":"U","ECCENTRICITY":"0.00030870","MEAN_ANOMALY":"327.7642","ELEMENT_SET_NO":"999","PERIOD":"94.983","RCS_SIZE":"LARGE","INCLINATION":"52.9994","DECAY_DATE":null,"ARG_OF_PERICENTER":"32.3539","TIME_SYSTEM":"UTC","REF_FRAME":"TEME","COUNTRY_CODE":"US","BSTAR":"0.00092012000000","TLE_LINE1":"1 44770U 19074BK  22171.75209237  .00017651  00000-0  92012-3 0  9998"},{"INCLINATION":"53.0534","RCS_SIZE":"LARGE","PERIOD":"95.592","ELEMENT_SET_NO":"999","TIME_SYSTEM":"UTC","ARG_OF_PERICENTER":"43.4307","DECAY_DATE":null,"BSTAR":"0.00005335600000","COUNTRY_CODE":"US","REF_FRAME":"TEME","TLE_LINE1":"1 44771U 19074BL  22171.82333989  .00000513  00000-0  53356-4 0  9997","REV_AT_EPOCH":"14353","MEAN_MOTION_DOT":"0.00000513","OBJECT_NAME":"STARLINK-1067","ECCENTRICITY":"0.00021030","MEAN_ANOMALY":"316.6847","CLASSIFICATION_TYPE":"U","OBJECT_TYPE":"PAYLOAD","EPHEMERIS_TYPE":"0","FILE":"3498404","MEAN_MOTION":"15.06404143","GP_ID":"206511810","SEMIMAJOR_AXIS":"6925.336","OBJECT_ID":"2019-074BL","APOAPSIS":"548.657","PERIAPSIS":"545.744","TLE_LINE2":"2 44771  53.0534 202.3144 0002103  43.4307 316.6847 15.06404143143537","SITE":"AFETR","CENTER_NAME":"EARTH","EPOCH":"2022-06-20T19:45:36.566496","MEAN_ELEMENT_THEORY":"SGP4","LAUNCH_DATE":"2019-11-11","RA_OF_ASC_NODE":"202.3144","NORAD_CAT_ID":"44771","MEAN_MOTION_DDOT":"0.0000000000000"},{"DECAY_DATE":null,"ARG_OF_PERICENTER":"60.5639","TIME_SYSTEM":"UTC","ELEMENT_SET_NO":"999","PERIOD":"95.593","RCS_SIZE":"LARGE","INCLINATION":"53.0546","TLE_LINE1":"1 44772U 19074BM  22171.74778981 -.00000376  00000-0 -63650-5 0  9992","REF_FRAME":"TEME","COUNTRY_CODE":"US","BSTAR":"-0.00000636500000","OBJECT_NAME":"STARLINK-1068","MEAN_MOTION_DOT":"-0.00000376","REV_AT_EPOCH":"14379","CLASSIFICATION_TYPE":"U","ECCENTRICITY":"0.00018480","MEAN_ANOMALY":"299.5534","MEAN_MOTION":"15.06389113","FILE":"3498404","EPHEMERIS_TYPE":"0","OBJECT_TYPE":"PAYLOAD","TLE_LINE2":"2 44772  53.0546 182.6626 0001848  60.5639 299.5534 15.06389113143798","CENTER_NAME":"EARTH","SITE":"AFETR","PERIAPSIS":"545.967","APOAPSIS":"548.527","OBJECT_ID":"2019-074BM","GP_ID":"206510574","SEMIMAJOR_AXIS":"6925.382","MEAN_ELEMENT_THEORY":"SGP4","EPOCH":"2022-06-20T17:56:49.039584","MEAN_MOTION_DDOT":"0.0000000000000","NORAD_CAT_ID":"44772","RA_OF_ASC_NODE":"182.6626","LAUNCH_DATE":"2019-11-11"},{"ECCENTRICITY":"0.00020860","MEAN_ANOMALY":"300.1445","CLASSIFICATION_TYPE":"U","MEAN_MOTION_DOT":"0.00001427","OBJECT_NAME":"STARLINK-1073","REV_AT_EPOCH":"13518","REF_FRAME":"TEME","BSTAR":"0.00011472000000","COUNTRY_CODE":"US","TLE_LINE1":"1 44914U 20001A   22171.83071351  .00001427  00000-0  11472-3 0  9998","PERIOD":"95.592","ELEMENT_SET_NO":"999","INCLINATION":"53.0552","RCS_SIZE":"LARGE","DECAY_DATE":null,"TIME_SYSTEM":"UTC","ARG_OF_PERICENTER":"59.9751","LAUNCH_DATE":"2020-01-07","MEAN_MOTION_DDOT":"0.0000000000000","NORAD_CAT_ID":"44914","RA_OF_ASC_NODE":"322.2788","MEAN_ELEMENT_THEORY":"SGP4","EPOCH":"2022-06-20T19:56:13.647264","APOAPSIS":"548.667","SEMIMAJOR_AXIS":"6925.358","GP_ID":"206489489","OBJECT_ID":"2020-001A","PERIAPSIS":"545.778","SITE":"AFETR","TLE_LINE2":"2 44914  53.0552 322.2788 0002086  59.9751 300.1445 15.06397026135182","CENTER_NAME":"EARTH","OBJECT_TYPE":"PAYLOAD","EPHEMERIS_TYPE":"0","FILE":"3498320","MEAN_MOTION":"15.06397026"},{"OBJECT_ID":"2020-001B","GP_ID":"206511824","SEMIMAJOR_AXIS":"6925.338","APOAPSIS":"548.138","TLE_LINE2":"2 44915  53.0566 322.1442 0001351  69.8241 290.2893 15.06403525135191","CENTER_NAME":"EARTH","SITE":"AFETR","PERIAPSIS":"546.267","EPHEMERIS_TYPE":"0","OBJECT_TYPE":"PAYLOAD","MEAN_MOTION":"15.06403525","FILE":"3498404","LAUNCH_DATE":"2020-01-07","NORAD_CAT_ID":"44915","RA_OF_ASC_NODE":"322.1442","MEAN_MOTION_DDOT":"0.0000000000000","EPOCH":"2022-06-20T20:38:41.118432","MEAN_ELEMENT_THEORY":"SGP4","COUNTRY_CODE":"US","BSTAR":"0.00007703700000","REF_FRAME":"TEME","TLE_LINE1":"1 44915U 20001B   22171.86019813  .00000866  00000-0  77037-4 0  9993","RCS_SIZE":"LARGE","INCLINATION":"53.0566","ELEMENT_SET_NO":"999","PERIOD":"95.592","ARG_OF_PERICENTER":"69.8241","TIME_SYSTEM":"UTC","DECAY_DATE":null,"CLASSIFICATION_TYPE":"U","ECCENTRICITY":"0.00013510","MEAN_ANOMALY":"290.2893","REV_AT_EPOCH":"13519","OBJECT_NAME":"STARLINK-1084","MEAN_MOTION_DOT":"0.00000866"},{"REF_FRAME":"TEME","BSTAR":"0.00007554400000","COUNTRY_CODE":"US","TLE_LINE1":"1 44917U 20001D   22171.86388971  .00000844  00000-0  75544-4 0  9996","PERIOD":"95.593","ELEMENT_SET_NO":"999","INCLINATION":"53.0564","RCS_SIZE":"LARGE","DECAY_DATE":null,"TIME_SYSTEM":"UTC","ARG_OF_PERICENTER":"75.9079","ECCENTRICITY":"0.00013960","MEAN_ANOMALY":"284.2065","CLASSIFICATION_TYPE":"U","MEAN_MOTION_DOT":"0.00000844","OBJECT_NAME":"STARLINK-1098","REV_AT_EPOCH":"13519","APOAPSIS":"548.204","SEMIMAJOR_AXIS":"6925.372","GP_ID":"206510588","OBJECT_ID":"2020-001D","PERIAPSIS":"546.271","TLE_LINE2":"2 44917  53.0564 322.1330 0001396  75.9079 284.2065 15.06392213135198","CENTER_NAME":"EARTH","SITE":"AFETR","OBJECT_TYPE":"PAYLOAD","EPHEMERIS_TYPE":"0","FILE":"3498404","MEAN_MOTION":"15.06392213","LAUNCH_DATE":"2020-01-07","MEAN_MOTION_DDOT":"0.0000000000000","RA_OF_ASC_NODE":"322.1330","NORAD_CAT_ID":"44917","EPOCH":"2022-06-20T20:44:00.070944","MEAN_ELEMENT_THEORY":"SGP4"},{"MEAN_ELEMENT_THEORY":"SGP4","EPOCH":"2022-06-20T21:03:52.784064","NORAD_CAT_ID":"44918","RA_OF_ASC_NODE":"322.0921","MEAN_MOTION_DDOT":"0.0000000000000","LAUNCH_DATE":"2020-01-07","FILE":"3498404","MEAN_MOTION":"15.06399236","EPHEMERIS_TYPE":"0","OBJECT_TYPE":"PAYLOAD","TLE_LINE2":"2 44918  53.0543 322.0921 0001283  74.2894 285.8236 15.06399236135934","CENTER_NAME":"EARTH","SITE":"AFETR","PERIAPSIS":"546.327","OBJECT_ID":"2020-001E","SEMIMAJOR_AXIS":"6925.351","GP_ID":"206510837","APOAPSIS":"548.104","REV_AT_EPOCH":"13593","OBJECT_NAME":"STARLINK-1099","MEAN_MOTION_DOT":"0.00001165","CLASSIFICATION_TYPE":"U","ECCENTRICITY":"0.00012830","MEAN_ANOMALY":"285.8236","ARG_OF_PERICENTER":"74.2894","TIME_SYSTEM":"UTC","DECAY_DATE":null,"RCS_SIZE":"LARGE","INCLINATION":"53.0543","ELEMENT_SET_NO":"999","PERIOD":"95.592","TLE_LINE1":"1 44918U 20001E   22171.87769426  .00001165  00000-0  97075-4 0  9996","COUNTRY_CODE":"US","BSTAR":"0.00009707500000","REF_FRAME":"TEME"},{"PERIOD":"95.592","ELEMENT_SET_NO":"999","INCLINATION":"53.0565","RCS_SIZE":"LARGE","DECAY_DATE":null,"TIME_SYSTEM":"UTC","ARG_OF_PERICENTER":"66.4113","REF_FRAME":"TEME","BSTAR":"0.00005520900000","COUNTRY_CODE":"US","TLE_LINE1":"1 44920U 20001G   22171.82333683  .00000541  00000-0  55209-4 0  9996","MEAN_MOTION_DOT":"0.00000541","OBJECT_NAME":"STARLINK-1102","REV_AT_EPOCH":"13518","MEAN_ANOMALY":"293.7051","ECCENTRICITY":"0.00016630","CLASSIFICATION_TYPE":"U","OBJECT_TYPE":"PAYLOAD","EPHEMERIS_TYPE":"0","FILE":"3498404","MEAN_MOTION":"15.06397768","APOAPSIS":"548.372","SEMIMAJOR_AXIS":"6925.355","GP_ID":"206511081","OBJECT_ID":"2020-001G","PERIAPSIS":"546.069","CENTER_NAME":"EARTH","TLE_LINE2":"2 44920  53.0565 322.3246 0001663  66.4113 293.7051 15.06397768135181","SITE":"AFETR","EPOCH":"2022-06-20T19:45:36.302112","MEAN_ELEMENT_THEORY":"SGP4","LAUNCH_DATE":"2020-01-07","MEAN_MOTION_DDOT":"0.0000000000000","NORAD_CAT_ID":"44920","RA_OF_ASC_NODE":"322.3246"}];
